[
  {
    "OBJECT_NAME": "STARLINK-2487",
    "OBJECT_ID": "21027BE",
    "EPOCH": "2025-11-11T06:44:19.917312",
    "MEAN_MOTION": 15.06390663,
    "ECCENTRICITY": 0.0001336,
    "INCLINATION": 53.0538,
    "RA_OF_ASC_NODE": 323.1769,
    "ARG_OF_PERICENTER": 83.4336,
    "MEAN_ANOMALY": 276.6805,
    "EPHEMERIS_TYPE": 0,
    "CLASSIFICATION_TYPE": "U",
    "NORAD_CAT_ID": 48144,
    "ELEMENT_SET_NO": 999,
    "REV_AT_EPOCH": 25484,
    "BSTAR": 0.0,
    "MEAN_MOTION_DOT": -1.363e-05,
    "MEAN_MOTION_DDOT": 0.0,
    "TLE_LINE1": "1 48144U 21027BE  25315.28078608 -.00001363  00000+0 -72643-4 0  9998",
    "TLE_LINE2": "2 48144  53.0538 323.1769 0001336  83.4336 276.6805 15.06390663254844",
    "COMMENT": "Grouped by shell and plane from TLE"
  },
  {
    "OBJECT_NAME": "STARLINK-2488",
    "OBJECT_ID": "21027BF",
    "EPOCH": "2025-11-11T06:49:39.826272",
    "MEAN_MOTION": 15.0640333,
    "ECCENTRICITY": 0.0001089,
    "INCLINATION": 53.0538,
    "RA_OF_ASC_NODE": 323.1599,
    "ARG_OF_PERICENTER": 100.7615,
    "MEAN_ANOMALY": 259.3497,
    "EPHEMERIS_TYPE": 0,
    "CLASSIFICATION_TYPE": "U",
    "NORAD_CAT_ID": 48145,
    "ELEMENT_SET_NO": 999,
    "REV_AT_EPOCH": 25485,
    "BSTAR": 0.00039821,
    "MEAN_MOTION_DOT": 5.655e-05,
    "MEAN_MOTION_DDOT": 0.0,
    "TLE_LINE1": "1 48145U 21027BF  25315.28448873  .00005655  00000+0  39821-3 0  9990",
    "TLE_LINE2": "2 48145  53.0538 323.1599 0001089 100.7615 259.3497 15.06403330254856",
    "COMMENT": "Grouped by shell and plane from TLE"
  },
  {
    "OBJECT_NAME": "STARLINK-2492",
    "OBJECT_ID": "21027BK",
    "EPOCH": "2025-11-11T06:17:47.106528",
    "MEAN_MOTION": 15.06397854,
    "ECCENTRICITY": 0.0001438,
    "INCLINATION": 53.0551,
    "RA_OF_ASC_NODE": 323.2603,
    "ARG_OF_PERICENTER": 101.7478,
    "MEAN_ANOMALY": 258.3672,
    "EPHEMERIS_TYPE": 0,
    "CLASSIFICATION_TYPE": "U",
    "NORAD_CAT_ID": 48149,
    "ELEMENT_SET_NO": 999,
    "REV_AT_EPOCH": 25484,
    "BSTAR": 3.5666e-05,
    "MEAN_MOTION_DOT": 2.5e-06,
    "MEAN_MOTION_DDOT": 0.0,
    "TLE_LINE1": "1 48149U 21027BK  25315.26235077  .00000250  00000+0  35666-4 0  9992",
    "TLE_LINE2": "2 48149  53.0551 323.2603 0001438 101.7478 258.3672 15.06397854254844",
    "COMMENT": "Grouped by shell and plane from TLE"
  },
  {
    "OBJECT_NAME": "STARLINK-2493",
    "OBJECT_ID": "21027BL",
    "EPOCH": "2025-11-11T06:23:06.459072",
    "MEAN_MOTION": 15.06392568,
    "ECCENTRICITY": 0.0001391,
    "INCLINATION": 53.0549,
    "RA_OF_ASC_NODE": 323.2439,
    "ARG_OF_PERICENTER": 76.0378,
    "MEAN_ANOMALY": 284.0766,
    "EPHEMERIS_TYPE": 0,
    "CLASSIFICATION_TYPE": "U",
    "NORAD_CAT_ID": 48150,
    "ELEMENT_SET_NO": 999,
    "REV_AT_EPOCH": 25485,
    "BSTAR": 0.00011527,
    "MEAN_MOTION_DOT": 1.436e-05,
    "MEAN_MOTION_DDOT": 0.0,
    "TLE_LINE1": "1 48150U 21027BL  25315.26604698  .00001436  00000+0  11527-3 0  9999",
    "TLE_LINE2": "2 48150  53.0549 323.2439 0001391  76.0378 284.0766 15.06392568254859",
    "COMMENT": "Grouped by shell and plane from TLE"
  },
  {
    "OBJECT_NAME": "STARLINK-2503",
    "OBJECT_ID": "21027BM",
    "EPOCH": "2025-11-11T06:28:22.514592",
    "MEAN_MOTION": 15.06412105,
    "ECCENTRICITY": 0.0001497,
    "INCLINATION": 53.0552,
    "RA_OF_ASC_NODE": 323.2262,
    "ARG_OF_PERICENTER": 113.4709,
    "MEAN_ANOMALY": 246.6438,
    "EPHEMERIS_TYPE": 0,
    "CLASSIFICATION_TYPE": "U",
    "NORAD_CAT_ID": 48151,
    "ELEMENT_SET_NO": 999,
    "REV_AT_EPOCH": 25485,
    "BSTAR": 0.00047625,
    "MEAN_MOTION_DOT": 6.821e-05,
    "MEAN_MOTION_DDOT": 0.0,
    "TLE_LINE1": "1 48151U 21027BM  25315.26970503  .00006821  00000+0  47625-3 0  9992",
    "TLE_LINE2": "2 48151  53.0552 323.2262 0001497 113.4709 246.6438 15.06412105254859",
    "COMMENT": "Grouped by shell and plane from TLE"
  },
  {
    "OBJECT_NAME": "STARLINK-2700",
    "OBJECT_ID": "21040D",
    "EPOCH": "2025-11-11T07:25:25.760352",
    "MEAN_MOTION": 15.06406018,
    "ECCENTRICITY": 0.0001436,
    "INCLINATION": 53.0554,
    "RA_OF_ASC_NODE": 323.0488,
    "ARG_OF_PERICENTER": 93.1377,
    "MEAN_ANOMALY": 266.9777,
    "EPHEMERIS_TYPE": 0,
    "CLASSIFICATION_TYPE": "U",
    "NORAD_CAT_ID": 48431,
    "ELEMENT_SET_NO": 999,
    "REV_AT_EPOCH": 24920,
    "BSTAR": 0.0,
    "MEAN_MOTION_DOT": -1.319e-05,
    "MEAN_MOTION_DDOT": 0.0,
    "TLE_LINE1": "1 48431U 21040D   25315.30932593 -.00001319  00000+0 -69625-4 0  9994",
    "TLE_LINE2": "2 48431  53.0554 323.0488 0001436  93.1377 266.9777 15.06406018249208",
    "COMMENT": "Grouped by shell and plane from TLE"
  },
  {
    "OBJECT_NAME": "STARLINK-2699",
    "OBJECT_ID": "21040F",
    "EPOCH": "2025-11-11T07:16:13.457856",
    "MEAN_MOTION": 15.06402249,
    "ECCENTRICITY": 0.000158,
    "INCLINATION": 53.0553,
    "RA_OF_ASC_NODE": 323.3557,
    "ARG_OF_PERICENTER": 109.2755,
    "MEAN_ANOMALY": 250.8405,
    "EPHEMERIS_TYPE": 0,
    "CLASSIFICATION_TYPE": "U",
    "NORAD_CAT_ID": 48433,
    "ELEMENT_SET_NO": 999,
    "REV_AT_EPOCH": 24919,
    "BSTAR": 4.262300000000001e-06,
    "MEAN_MOTION_DOT": -2.18e-06,
    "MEAN_MOTION_DDOT": 0.0,
    "TLE_LINE1": "1 48433U 21040F   25315.30293354 -.00000218  00000+0  42623-5 0  9997",
    "TLE_LINE2": "2 48433  53.0553 323.3557 0001580 109.2755 250.8405 15.06402249249198",
    "COMMENT": "Grouped by shell and plane from TLE"
  },
  {
    "OBJECT_NAME": "STARLINK-2692",
    "OBJECT_ID": "21040G",
    "EPOCH": "2025-11-11T06:25:10.396416",
    "MEAN_MOTION": 15.06405502,
    "ECCENTRICITY": 0.0001521,
    "INCLINATION": 53.0549,
    "RA_OF_ASC_NODE": 328.7451,
    "ARG_OF_PERICENTER": 101.4302,
    "MEAN_ANOMALY": 258.6858,
    "EPHEMERIS_TYPE": 0,
    "CLASSIFICATION_TYPE": "U",
    "NORAD_CAT_ID": 48434,
    "ELEMENT_SET_NO": 999,
    "REV_AT_EPOCH": 24912,
    "BSTAR": 0.0,
    "MEAN_MOTION_DOT": -4.48e-06,
    "MEAN_MOTION_DDOT": 0.0,
    "TLE_LINE1": "1 48434U 21040G   25315.26748144 -.00000448  00000+0 -11143-4 0  9993",
    "TLE_LINE2": "2 48434  53.0549 328.7451 0001521 101.4302 258.6858 15.06405502249129",
    "COMMENT": "Grouped by shell and plane from TLE"
  },
  {
    "OBJECT_NAME": "STARLINK-3219",
    "OBJECT_ID": "21115A",
    "EPOCH": "2025-11-11T06:46:10.286400",
    "MEAN_MOTION": 15.08844112,
    "ECCENTRICITY": 0.000154,
    "INCLINATION": 53.2166,
    "RA_OF_ASC_NODE": 320.8914,
    "ARG_OF_PERICENTER": 100.3598,
    "MEAN_ANOMALY": 259.7568,
    "EPHEMERIS_TYPE": 0,
    "CLASSIFICATION_TYPE": "U",
    "NORAD_CAT_ID": 49724,
    "ELEMENT_SET_NO": 999,
    "REV_AT_EPOCH": 21765,
    "BSTAR": 0.00012812,
    "MEAN_MOTION_DOT": 1.752e-05,
    "MEAN_MOTION_DDOT": 0.0,
    "TLE_LINE1": "1 49724U 21115A   25315.28206350  .00001752  00000+0  12812-3 0  9999",
    "TLE_LINE2": "2 49724  53.2166 320.8914 0001540 100.3598 259.7568 15.08844112217651",
    "COMMENT": "Grouped by shell and plane from TLE"
  },
  {
    "OBJECT_NAME": "STARLINK-3218",
    "OBJECT_ID": "21115B",
    "EPOCH": "2025-11-11T05:42:33.543936",
    "MEAN_MOTION": 15.08840374,
    "ECCENTRICITY": 0.0001342,
    "INCLINATION": 53.218,
    "RA_OF_ASC_NODE": 320.9771,
    "ARG_OF_PERICENTER": 90.5836,
    "MEAN_ANOMALY": 269.531,
    "EPHEMERIS_TYPE": 0,
    "CLASSIFICATION_TYPE": "U",
    "NORAD_CAT_ID": 49725,
    "ELEMENT_SET_NO": 999,
    "REV_AT_EPOCH": 21765,
    "BSTAR": 2.9994e-05,
    "MEAN_MOTION_DOT": 1.89e-06,
    "MEAN_MOTION_DDOT": 0.0,
    "TLE_LINE1": "1 49725U 21115B   25315.23788824  .00000189  00000+0  29994-4 0  9999",
    "TLE_LINE2": "2 49725  53.2180 320.9771 0001342  90.5836 269.5310 15.08840374217655",
    "COMMENT": "Grouped by shell and plane from TLE"
  },
  {
    "OBJECT_NAME": "STARLINK-3238",
    "OBJECT_ID": "21115L",
    "EPOCH": "2025-11-11T07:07:20.079552",
    "MEAN_MOTION": 15.08841156,
    "ECCENTRICITY": 0.0001596,
    "INCLINATION": 53.2184,
    "RA_OF_ASC_NODE": 320.6315,
    "ARG_OF_PERICENTER": 98.6785,
    "MEAN_ANOMALY": 261.4388,
    "EPHEMERIS_TYPE": 0,
    "CLASSIFICATION_TYPE": "U",
    "NORAD_CAT_ID": 49734,
    "ELEMENT_SET_NO": 999,
    "REV_AT_EPOCH": 21766,
    "BSTAR": 6.7972e-05,
    "MEAN_MOTION_DOT": 7.94e-06,
    "MEAN_MOTION_DDOT": 0.0,
    "TLE_LINE1": "1 49734U 21115L   25315.29676018  .00000794  00000+0  67972-4 0  9996",
    "TLE_LINE2": "2 49734  53.2184 320.6315 0001596  98.6785 261.4388 15.08841156217669",
    "COMMENT": "Grouped by shell and plane from TLE"
  },
  {
    "OBJECT_NAME": "STARLINK-3148",
    "OBJECT_ID": "21115N",
    "EPOCH": "2025-11-11T07:02:00.892032",
    "MEAN_MOTION": 15.0884263,
    "ECCENTRICITY": 0.0003488,
    "INCLINATION": 53.2181,
    "RA_OF_ASC_NODE": 320.5079,
    "ARG_OF_PERICENTER": 100.2767,
    "MEAN_ANOMALY": 259.8618,
    "EPHEMERIS_TYPE": 0,
    "CLASSIFICATION_TYPE": "U",
    "NORAD_CAT_ID": 49736,
    "ELEMENT_SET_NO": 999,
    "REV_AT_EPOCH": 21766,
    "BSTAR": 9.417600000000001e-05,
    "MEAN_MOTION_DOT": 1.21e-05,
    "MEAN_MOTION_DDOT": 0.0,
    "TLE_LINE1": "1 49736U 21115N   25315.29306588  .00001210  00000+0  94176-4 0  9990",
    "TLE_LINE2": "2 49736  53.2181 320.5079 0003488 100.2767 259.8618 15.08842630217661",
    "COMMENT": "Grouped by shell and plane from TLE"
  },
  {
    "OBJECT_NAME": "STARLINK-3225",
    "OBJECT_ID": "21115P",
    "EPOCH": "2025-11-11T05:37:14.676096",
    "MEAN_MOTION": 15.08838506,
    "ECCENTRICITY": 0.0001743,
    "INCLINATION": 53.2178,
    "RA_OF_ASC_NODE": 320.8878,
    "ARG_OF_PERICENTER": 96.1014,
    "MEAN_ANOMALY": 264.0177,
    "EPHEMERIS_TYPE": 0,
    "CLASSIFICATION_TYPE": "U",
    "NORAD_CAT_ID": 49737,
    "ELEMENT_SET_NO": 999,
    "REV_AT_EPOCH": 21765,
    "BSTAR": 5.1933e-05,
    "MEAN_MOTION_DOT": 5.39e-06,
    "MEAN_MOTION_DDOT": 0.0,
    "TLE_LINE1": "1 49737U 21115P   25315.23419764  .00000539  00000+0  51933-4 0  9993",
    "TLE_LINE2": "2 49737  53.2178 320.8878 0001743  96.1014 264.0177 15.08838506217652",
    "COMMENT": "Grouped by shell and plane from TLE"
  }
]